SL-3 R/B                
1 13154U 82039B   25321.78014918  .00003718  00000+0  22900-3 0  9991
2 13154  81.1775 344.8011 0031783 334.8750  25.0926 15.09328912364757
SL-3 R/B                
1 13403U 82079B   25321.78669138  .00006771  00000+0  28252-3 0  9990
2 13403  81.1457 325.0699 0025589 180.7754 179.3443 15.23214250360650
SL-14 R/B               
1 13553U 82092B   25321.76910103  .00000965  00000+0  10606-3 0  9993
2 13553  82.5684 246.0621 0019303 316.2539  73.2041 14.86517365312300
SL-3 R/B                
1 13819U 83010B   25321.48054814  .00018278  00000+0  41713-3 0  9995
2 13819  81.1020 139.4297 0018253  77.2847 283.0435 15.42575128340625
SL-3 R/B                
1 14208U 83075B   25321.76747522  .00013677  00000+0  39644-3 0  9993
2 14208  97.6098 317.4270 0020931 269.9196  89.9649 15.35456692312969
COSMOS 1536             
1 14699U 84013A   25321.69700838  .00009278  00000+0  40231-3 0  9997
2 14699  82.5478 218.9884 0014079 323.6977  36.3302 15.22137121255579
SL-14 R/B               
1 14820U 84027B   25321.50394003  .00000789  00000+0  87696-4 0  9996
2 14820  82.5422 350.2237 0017639 350.1826   9.9043 14.85837408230977
SL-8 R/B                
1 15483U 85006B   25321.85821472  .00000424  00000+0  14962-3 0  9994
2 15483  74.0440 106.9106 0017707  46.8707 105.3824 14.37699341137954
SL-12 R/B(2)            
1 15772U 85042D   25321.79439568  .00000286  00000+0  15023-3 0  9994
2 15772  71.1079 324.1211 0037448 297.9926 234.9416 14.21940761 98486
SL-14 R/B               
1 15945U 85069B   25321.72467979  .00000912  00000+0  10061-3 0  9998
2 15945  82.5245 130.2207 0018274 199.2017 160.8513 14.86281575156203
SL-16 R/B               
1 16182U 85097B   25321.58783895  .00000276  00000+0  16210-3 0  9990
2 16182  71.0044  16.5555 0005445  58.0057  91.7066 14.16577884 71352
SL-14 R/B               
1 16496U 86006B   25321.59425828  .00001096  00000+0  11473-3 0  9996
2 16496  82.5284   5.2110 0075251 284.5832  74.7047 14.86622989132558
