CCSDS_OMM_VERS = 2.0
CREATION_DATE  = 
ORIGINATOR     = 

OBJECT_NAME    = SL-3 R/B
OBJECT_ID      = 1982-039B
CENTER_NAME    = EARTH
REF_FRAME      = TEME
TIME_SYSTEM    = UTC
MEAN_ELEMENT_THEORY = SGP/SGP4

EPOCH          = 2025-11-17T18:43:24.889152
MEAN_MOTION    = 15.09328912
ECCENTRICITY   = .0031783
INCLINATION    = 81.1775
RA_OF_ASC_NODE = 344.8011
ARG_OF_PERICENTER = 334.8750
MEAN_ANOMALY   = 25.0926

EPHEMERIS_TYPE = 0
CLASSIFICATION_TYPE = U
NORAD_CAT_ID   = 13154
ELEMENT_SET_NO = 999
REV_AT_EPOCH   = 36475
BSTAR          = .229E-3
MEAN_MOTION_DOT = .3718E-4
MEAN_MOTION_DDOT = 0

CCSDS_OMM_VERS = 2.0
CREATION_DATE  = 
ORIGINATOR     = 

OBJECT_NAME    = SL-3 R/B
OBJECT_ID      = 1982-079B
CENTER_NAME    = EARTH
REF_FRAME      = TEME
TIME_SYSTEM    = UTC
MEAN_ELEMENT_THEORY = SGP/SGP4

EPOCH          = 2025-11-17T18:52:50.135232
MEAN_MOTION    = 15.23214250
ECCENTRICITY   = .0025589
INCLINATION    = 81.1457
RA_OF_ASC_NODE = 325.0699
ARG_OF_PERICENTER = 180.7754
MEAN_ANOMALY   = 179.3443

EPHEMERIS_TYPE = 0
CLASSIFICATION_TYPE = U
NORAD_CAT_ID   = 13403
ELEMENT_SET_NO = 999
REV_AT_EPOCH   = 36065
BSTAR          = .28252E-3
MEAN_MOTION_DOT = .6771E-4
MEAN_MOTION_DDOT = 0

CCSDS_OMM_VERS = 2.0
CREATION_DATE  = 
ORIGINATOR     = 

OBJECT_NAME    = SL-14 R/B
OBJECT_ID      = 1982-092B
CENTER_NAME    = EARTH
REF_FRAME      = TEME
TIME_SYSTEM    = UTC
MEAN_ELEMENT_THEORY = SGP/SGP4

EPOCH          = 2025-11-17T18:27:30.328992
MEAN_MOTION    = 14.86517365
ECCENTRICITY   = .0019303
INCLINATION    = 82.5684
RA_OF_ASC_NODE = 246.0621
ARG_OF_PERICENTER = 316.2539
MEAN_ANOMALY   = 73.2041

EPHEMERIS_TYPE = 0
CLASSIFICATION_TYPE = U
NORAD_CAT_ID   = 13553
ELEMENT_SET_NO = 999
REV_AT_EPOCH   = 31230
BSTAR          = .10606E-3
MEAN_MOTION_DOT = .965E-5
MEAN_MOTION_DDOT = 0

CCSDS_OMM_VERS = 2.0
CREATION_DATE  = 
ORIGINATOR     = 

OBJECT_NAME    = SL-3 R/B
OBJECT_ID      = 1983-010B
CENTER_NAME    = EARTH
REF_FRAME      = TEME
TIME_SYSTEM    = UTC
MEAN_ELEMENT_THEORY = SGP/SGP4

EPOCH          = 2025-11-17T11:31:59.359296
MEAN_MOTION    = 15.42575128
ECCENTRICITY   = .00182529
INCLINATION    = 81.1020
RA_OF_ASC_NODE = 139.4297
ARG_OF_PERICENTER = 77.2847
MEAN_ANOMALY   = 283.0435

EPHEMERIS_TYPE = 0
CLASSIFICATION_TYPE = U
NORAD_CAT_ID   = 13819
ELEMENT_SET_NO = 999
REV_AT_EPOCH   = 34062
BSTAR          = .41712679E-3
MEAN_MOTION_DOT = .18278E-3
MEAN_MOTION_DDOT = 0

CCSDS_OMM_VERS = 2.0
CREATION_DATE  = 
ORIGINATOR     = 

OBJECT_NAME    = SL-3 R/B
OBJECT_ID      = 1983-075B
CENTER_NAME    = EARTH
REF_FRAME      = TEME
TIME_SYSTEM    = UTC
MEAN_ELEMENT_THEORY = SGP/SGP4

EPOCH          = 2025-11-17T18:25:09.859008
MEAN_MOTION    = 15.35456692
ECCENTRICITY   = .0020931
INCLINATION    = 97.6098
RA_OF_ASC_NODE = 317.4270
ARG_OF_PERICENTER = 269.9196
MEAN_ANOMALY   = 89.9649

EPHEMERIS_TYPE = 0
CLASSIFICATION_TYPE = U
NORAD_CAT_ID   = 14208
ELEMENT_SET_NO = 999
REV_AT_EPOCH   = 31296
BSTAR          = .39644E-3
MEAN_MOTION_DOT = .13677E-3
MEAN_MOTION_DDOT = 0

CCSDS_OMM_VERS = 2.0
CREATION_DATE  = 
ORIGINATOR     = 

OBJECT_NAME    = COSMOS 1536
OBJECT_ID      = 1984-013A
CENTER_NAME    = EARTH
REF_FRAME      = TEME
TIME_SYSTEM    = UTC
MEAN_ELEMENT_THEORY = SGP/SGP4

EPOCH          = 2025-11-17T16:43:41.524032
MEAN_MOTION    = 15.22137121
ECCENTRICITY   = .0014079
INCLINATION    = 82.5478
RA_OF_ASC_NODE = 218.9884
ARG_OF_PERICENTER = 323.6977
MEAN_ANOMALY   = 36.3302

EPHEMERIS_TYPE = 0
CLASSIFICATION_TYPE = U
NORAD_CAT_ID   = 14699
ELEMENT_SET_NO = 999
REV_AT_EPOCH   = 25557
BSTAR          = .40231E-3
MEAN_MOTION_DOT = .9278E-4
MEAN_MOTION_DDOT = 0

CCSDS_OMM_VERS = 2.0
CREATION_DATE  = 
ORIGINATOR     = 

OBJECT_NAME    = SL-14 R/B
OBJECT_ID      = 1984-027B
CENTER_NAME    = EARTH
REF_FRAME      = TEME
TIME_SYSTEM    = UTC
MEAN_ELEMENT_THEORY = SGP/SGP4

EPOCH          = 2025-11-17T12:05:40.419456
MEAN_MOTION    = 14.85837408
ECCENTRICITY   = .00176388
INCLINATION    = 82.5422
RA_OF_ASC_NODE = 350.2237
ARG_OF_PERICENTER = 350.1826
MEAN_ANOMALY   = 9.9043

EPHEMERIS_TYPE = 0
CLASSIFICATION_TYPE = U
NORAD_CAT_ID   = 14820
ELEMENT_SET_NO = 999
REV_AT_EPOCH   = 23097
BSTAR          = .87695709E-4
MEAN_MOTION_DOT = .789E-5
MEAN_MOTION_DDOT = 0

CCSDS_OMM_VERS = 2.0
CREATION_DATE  = 
ORIGINATOR     = 

OBJECT_NAME    = SL-8 R/B
OBJECT_ID      = 1985-006B
CENTER_NAME    = EARTH
REF_FRAME      = TEME
TIME_SYSTEM    = UTC
MEAN_ELEMENT_THEORY = SGP/SGP4

EPOCH          = 2025-11-17T20:35:49.751808
MEAN_MOTION    = 14.37699341
ECCENTRICITY   = .0017707
INCLINATION    = 74.0440
RA_OF_ASC_NODE = 106.9106
ARG_OF_PERICENTER = 46.8707
MEAN_ANOMALY   = 105.3824

EPHEMERIS_TYPE = 0
CLASSIFICATION_TYPE = U
NORAD_CAT_ID   = 15483
ELEMENT_SET_NO = 999
REV_AT_EPOCH   = 13795
BSTAR          = .14962E-3
MEAN_MOTION_DOT = .424E-5
MEAN_MOTION_DDOT = 0

CCSDS_OMM_VERS = 2.0
CREATION_DATE  = 
ORIGINATOR     = 

OBJECT_NAME    = SL-12 R/B(2)
OBJECT_ID      = 1985-042D
CENTER_NAME    = EARTH
REF_FRAME      = TEME
TIME_SYSTEM    = UTC
MEAN_ELEMENT_THEORY = SGP/SGP4

EPOCH          = 2025-11-17T19:03:55.786752
MEAN_MOTION    = 14.21940761
ECCENTRICITY   = .0037448
INCLINATION    = 71.1079
RA_OF_ASC_NODE = 324.1211
ARG_OF_PERICENTER = 297.9926
MEAN_ANOMALY   = 234.9416

EPHEMERIS_TYPE = 0
CLASSIFICATION_TYPE = U
NORAD_CAT_ID   = 15772
ELEMENT_SET_NO = 999
REV_AT_EPOCH   = 9848
BSTAR          = .15023E-3
MEAN_MOTION_DOT = .286E-5
MEAN_MOTION_DDOT = 0

CCSDS_OMM_VERS = 2.0
CREATION_DATE  = 
ORIGINATOR     = 

OBJECT_NAME    = SL-14 R/B
OBJECT_ID      = 1985-069B
CENTER_NAME    = EARTH
REF_FRAME      = TEME
TIME_SYSTEM    = UTC
MEAN_ELEMENT_THEORY = SGP/SGP4

EPOCH          = 2025-11-17T17:23:32.333856
MEAN_MOTION    = 14.86281575
ECCENTRICITY   = .0018274
INCLINATION    = 82.5245
RA_OF_ASC_NODE = 130.2207
ARG_OF_PERICENTER = 199.2017
MEAN_ANOMALY   = 160.8513

EPHEMERIS_TYPE = 0
CLASSIFICATION_TYPE = U
NORAD_CAT_ID   = 15945
ELEMENT_SET_NO = 999
REV_AT_EPOCH   = 15620
BSTAR          = .10061E-3
MEAN_MOTION_DOT = .912E-5
MEAN_MOTION_DDOT = 0

CCSDS_OMM_VERS = 2.0
CREATION_DATE  = 
ORIGINATOR     = 

OBJECT_NAME    = SL-16 R/B
OBJECT_ID      = 1985-097B
CENTER_NAME    = EARTH
REF_FRAME      = TEME
TIME_SYSTEM    = UTC
MEAN_ELEMENT_THEORY = SGP/SGP4

EPOCH          = 2025-11-17T14:06:29.285280
MEAN_MOTION    = 14.16577884
ECCENTRICITY   = .00054447
INCLINATION    = 71.0044
RA_OF_ASC_NODE = 16.5555
ARG_OF_PERICENTER = 58.0057
MEAN_ANOMALY   = 91.7066

EPHEMERIS_TYPE = 0
CLASSIFICATION_TYPE = U
NORAD_CAT_ID   = 16182
ELEMENT_SET_NO = 999
REV_AT_EPOCH   = 7135
BSTAR          = .16210176E-3
MEAN_MOTION_DOT = .276E-5
MEAN_MOTION_DDOT = 0

CCSDS_OMM_VERS = 2.0
CREATION_DATE  = 
ORIGINATOR     = 

OBJECT_NAME    = SL-14 R/B
OBJECT_ID      = 1986-006B
CENTER_NAME    = EARTH
REF_FRAME      = TEME
TIME_SYSTEM    = UTC
MEAN_ELEMENT_THEORY = SGP/SGP4

EPOCH          = 2025-11-17T14:15:43.915392
MEAN_MOTION    = 14.86622989
ECCENTRICITY   = .00752514
INCLINATION    = 82.5284
RA_OF_ASC_NODE = 5.2110
ARG_OF_PERICENTER = 284.5832
MEAN_ANOMALY   = 74.7047

EPHEMERIS_TYPE = 0
CLASSIFICATION_TYPE = U
NORAD_CAT_ID   = 16496
ELEMENT_SET_NO = 999
REV_AT_EPOCH   = 13255
BSTAR          = .11472655E-3
MEAN_MOTION_DOT = .1096E-4
MEAN_MOTION_DDOT = 0

